[{"OBJECT_NAME":"VIZARD-ION (RS68S)","OBJECT_ID":"2024-199Q","EPOCH":"2026-03-09T21:35:41.706528","MEAN_MOTION":15.48510131,"ECCENTRICITY":0.00065549,"INCLINATION":97.3148,"RA_OF_ASC_NODE":303.5274,"ARG_OF_PERICENTER":277.5906,"MEAN_ANOMALY":82.46,"EPHEMERIS_TYPE":0,"CLASSIFICATION_TYPE":"U","NORAD_CAT_ID":61749,"ELEMENT_SET_NO":999,"REV_AT_EPOCH":12217,"BSTAR":0.00065976673,"MEAN_MOTION_DOT":0.00035136,"MEAN_MOTION_DDOT":0},{"OBJECT_NAME":"ICEYE-X5","OBJECT_ID":"2019-038C","EPOCH":"2026-03-10T00:10:40.445184","MEAN_MOTION":15.47605863,"ECCENTRICITY":0.00060957,"INCLINATION":97.8842,"RA_OF_ASC_NODE":114.3267,"ARG_OF_PERICENTER":240.5643,"MEAN_ANOMALY":119.4998,"EPHEMERIS_TYPE":0,"CLASSIFICATION_TYPE":"U","NORAD_CAT_ID":44389,"ELEMENT_SET_NO":999,"REV_AT_EPOCH":36758,"BSTAR":0.00078999629,"MEAN_MOTION_DOT":0.00040808,"MEAN_MOTION_DDOT":0}]
